NIMIQ 2                 
1 27632U 02062A   26171.26762638 -.00000078  00000+0  00000+0 0  9991
2 27632   9.4541  56.8684 0005585  25.9598 172.8061  1.00272421 44218
ANIK F2                 
1 28378U 04027A   26171.36017014 -.00000055  00000+0  00000+0 0  9999
2 28378   3.2965  79.4060 0004092  10.0614 197.6315  1.00271596 41297
ANIK F1R                
1 28868U 05036A   26171.43342742 -.00000080  00000+0  00000+0 0  9999
2 28868   4.3220  76.5421 0004175   5.3355 235.5023  1.00271216 46480
ANIK F3                 
1 31102U 07009A   26171.41331935 -.00000006  00000+0  00000+0 0  9994
2 31102   1.2069  83.8169 0002606   6.0698 208.8044  1.00273057 46590
NIMIQ 4                 
1 33373U 08044A   26171.37577706  .00000000  00000+0  00000+0 0  9992
2 33373   0.0407  55.0646 0002058  36.3314 230.5036  1.00266901 65019
TELSTAR 11N             
1 34111U 09009A   26171.20647115 -.00000256  00000+0  00000+0 0  9993
2 34111   0.0298  74.3216 0002329  17.9253 212.9246  1.00269868 46272
TERRESTAR-1             
1 35496U 09035A   26171.41918265 -.00000063  00000+0  00000+0 0  9995
2 35496   5.1794  48.7956 0002690  33.8323 225.8999  1.00272882 62162
NIMIQ 5                 
1 35873U 09050A   26171.37759707  .00000000  00000+0  00000+0 0  9990
2 35873   0.0204  10.6229 0002780  73.2484 247.9606  1.00269631 61378
SKYTERRA 1              
1 37218U 10061A   26171.35461541 -.00000124  00000+0  00000+0 0  9991
2 37218   5.1327  50.8589 0002304  12.9622 231.0714  1.00272186 57228
TELSTAR 14R             
1 37602U 11021A   26171.09438221 -.00000285  00000+0  00000+0 0  9993
2 37602   0.0256  68.3391 0002285 351.2791 179.6656  1.00271568 55862
NIMIQ 6                 
1 38342U 12026A   26171.37395705 -.00000178  00000+0  00000+0 0  9992
2 38342   0.0119 354.9173 0002676  90.0185 227.1625  1.00272093 50441
ANIK G1                 
1 39127U 13014A   26171.36017014 -.00000078  00000+0  00000+0 0  9994
2 39127   0.0389 271.9613 0001634 172.0946 206.8551  1.00271735 48281
TELSTAR 12V             
1 41036U 15068A   26171.38903713 -.00000124  00000+0  00000+0 0  9991
2 41036   0.0122  50.6261 0002275  32.0364 310.9897  1.00271200 38657
VIASAT-2                
1 42740U 17029A   26171.37820375 -.00000270  00000+0  00000+0 0  9996
2 42740   0.0166 300.6474 0000207  83.9333 310.2681  1.00271244 33237
LEO 1 (LEO VANTAGE 1)   
1 43113U 18004C   26171.31795124  .00003228  00000+0  22451-3 0  9995
2 43113  99.2428  90.0155 0351162  69.9120 293.9508 14.67819057437944
TELSTAR 19V             
1 43562U 18059A   26171.37950375 -.00000284  00000+0  00000+0 0  9992
2 43562   0.0156 116.4746 0002641 358.4978 227.2262  1.00269913 29173
TELSTAR 18V             
1 43611U 18069A   26171.27677625 -.00000299  00000+0  00000+0 0  9997
2 43611   0.0158 299.0001 0001817 141.1630  65.9528  1.00271609 28679
AMOS-17                 
1 44479U 19050A   26171.32409470  .00000105  00000+0  00000+0 0  9993
2 44479   0.0218 319.1911 0001926 166.1374 276.8959  1.00274444 25214
